NORAD_CAT_ID,OBJECT_NAME,OBJECT_TYPE,EPOCH,MEAN_MOTION,ECCENTRICITY,INCLINATION,RA_OF_ASC_NODE,ARG_OF_PERICENTER,MEAN_ANOMALY,BSTAR,MEAN_MOTION_DOT,MEAN_MOTION_DDOT,TLE_LINE0,TLE_LINE1,TLE_LINE2,SEMIMAJOR_AXIS,PERIOD,APOGEE,PERIGEE,DECAYED
53391.0,STARLINK-4521,PAYLOAD,2024-02-21 18:56:38,15.08840171,0.0001193,53.2158,237.0863,90.0504,270.0625,5.3998e-05,5.72e-06,0.0,0 STARLINK-4521,1 53391U 22097D   24052.78933684  .00000572  00000-0  53998-4 0  9994,2 53391  53.2158 237.0863 0001193  90.0504 270.0625 15.08840171 85266,6917.88,95.438,540.57,538.92,0.0
53391.0,STARLINK-4521,PAYLOAD,2024-02-22 12:25:53,15.08836558,0.0001339,53.217,233.8144,94.2558,265.8587,3.3824e-06,-2.34e-06,0.0,0 STARLINK-4521,1 53391U 22097D   24053.51798176 -.00000234  00000-0  33824-5 0  9994,2 53391  53.2170 233.8144 0001339  94.2558 265.8587 15.08836558 86021,6917.891,95.438,540.682,538.83,0.0
53391.0,STARLINK-4521,PAYLOAD,2024-02-22 18:47:25,15.08839159,0.0001281,53.2164,232.6261,90.1056,270.0083,4.6416e-05,4.51e-06,0.0,0 STARLINK-4521,1 53391U 22097D   24053.78293907  .00000451  00000-0  46416-4 0  9995,2 53391  53.2164 232.6261 0001281  90.1056 270.0083 15.08839159 86068,6917.883,95.438,540.634,538.862,0.0
53391.0,STARLINK-4521,PAYLOAD,2024-02-23 12:16:40,15.08835997,0.000138,53.2166,229.3579,99.5224,260.5924,3.8563e-05,3.26e-06,0.0,0 STARLINK-4521,1 53391U 22097D   24054.51158234  .00000326  00000-0  38563-4 0  9995,2 53391  53.2166 229.3579 0001380  99.5224 260.5924 15.08835997 85529,6917.893,95.438,540.712,538.803,0.0
53391.0,STARLINK-4521,PAYLOAD,2024-02-23 18:38:13,15.08837636,0.0001366,53.217,228.1684,98.7171,261.3976,4.8184e-05,4.79e-06,0.0,0 STARLINK-4521,1 53391U 22097D   24054.77654189  .00000479  00000-0  48184-4 0  9992,2 53391  53.2170 228.1684 0001366  98.7171 261.3976 15.08837636 86219,6917.888,95.438,540.698,538.808,0.0
53391.0,STARLINK-4521,PAYLOAD,2024-02-24 04:10:32,15.08835065,0.0001307,53.2165,226.3842,98.2131,261.9009,3.221e-05,2.25e-06,0.0,0 STARLINK-4521,1 53391U 22097D   24055.17398472  .00000225  00000-0  32210-4 0  9999,2 53391  53.2165 226.3842 0001307  98.2131 261.9009 15.08835065 86278,6917.895,95.438,540.665,538.856,0.0
53391.0,STARLINK-4521,PAYLOAD,2024-02-24 20:04:23,15.08839552,0.0001343,53.2159,223.407,82.8158,277.2987,4.345e-05,4.04e-06,0.0,0 STARLINK-4521,1 53391U 22097D   24055.83638381  .00000404  00000-0  43450-4 0  9995,2 53391  53.2159 223.4070 0001343  82.8158 277.2987 15.08839552 85729,6917.882,95.438,540.676,538.818,0.0
53391.0,STARLINK-4521,PAYLOAD,2024-02-25 04:01:19,15.08833939,0.000132,53.2165,221.9211,91.0009,269.1134,0.00012267,1.665e-05,0.0,0 STARLINK-4521,1 53391U 22097D   24056.16758609  .00001665  00000-0  12267-3 0  9999,2 53391  53.2165 221.9211 0001320  91.0009 269.1134 15.08833939 86423,6917.899,95.438,540.677,538.851,0.0
53391.0,STARLINK-4521,PAYLOAD,2024-02-25 19:55:10,15.08839853,0.0001434,53.2172,218.9482,82.2986,277.8169,9.3684e-06,-1.39e-06,0.0,0 STARLINK-4521,1 53391U 22097D   24056.82997732 -.00000139  00000-0  93684-5 0  9994,2 53391  53.2172 218.9482 0001434  82.2986 277.8169 15.08839853 86525,6917.881,95.438,540.738,538.754,0.0
53391.0,STARLINK-4521,PAYLOAD,2024-02-26 03:52:06,15.08832032,0.0001386,53.2167,217.461,82.3667,277.7483,-3.3374e-05,-8.19e-06,0.0,0 STARLINK-4521,1 53391U 22097D   24057.16118353 -.00000819  00000-0 -33374-4 0  9991,2 53391  53.2167 217.4610 0001386  82.3667 277.7483 15.08832032 85922,6917.905,95.438,540.729,538.811,0.0
53391.0,STARLINK-4521,PAYLOAD,2024-02-26 18:10:34,15.08834411,0.0001532,53.2169,214.7841,83.415,276.7016,-3.3166e-05,-8.16e-06,0.0,0 STARLINK-4521,1 53391U 22097D   24057.75734415 -.00000816  00000-0 -33166-4 0  9995,2 53391  53.2169 214.7841 0001532  83.4150 276.7016 15.08834411 86668,6917.897,95.438,540.822,538.703,0.0
53391.0,STARLINK-4521,PAYLOAD,2024-02-27 10:04:26,15.08849409,0.0001565,53.2171,211.8116,81.3819,278.7351,-0.00028209,-4.776e-05,0.0,0 STARLINK-4521,1 53391U 22097D   24058.41974541 -.00004776  00000-0 -28209-3 0  9995,2 53391  53.2171 211.8116 0001565  81.3819 278.7351 15.08849409 86116,6917.852,95.437,540.799,538.634,0.0
53391.0,STARLINK-4521,PAYLOAD,2024-02-27 14:50:33,15.08927377,0.0001646,53.2166,210.9202,64.4705,295.6457,-0.0013556,-0.00021849,0.0,0 STARLINK-4521,1 53391U 22097D   24058.61843807 -.00021849  00000-0 -13556-2 0  9995,2 53391  53.2166 210.9202 0001646  64.4705 295.6457 15.08927377 86792,6917.613,95.432,540.617,538.34,0.0
53391.0,STARLINK-4521,PAYLOAD,2024-02-27 19:36:44,15.08831385,0.0001463,53.2166,210.0268,90.5471,269.5688,5.2948e-05,5.55e-06,0.0,0 STARLINK-4521,1 53391U 22097D   24058.81718312  .00000555  00000-0  52948-4 0  9998,2 53391  53.2166 210.0268 0001463  90.5471 269.5688 15.08831385 86825,6917.907,95.438,540.784,538.76,0.0
53391.0,STARLINK-4521,PAYLOAD,2024-02-28 03:33:40,15.08828955,0.0001402,53.2163,208.5393,93.7303,266.3849,4.3277e-05,4.01e-06,0.0,0 STARLINK-4521,1 53391U 22097D   24059.14838706  .00000401  00000-0  43277-4 0  9990,2 53391  53.2163 208.5393 0001402  93.7303 266.3849 15.08828955 86222,6917.914,95.438,540.749,538.809,0.0
53391.0,STARLINK-4521,PAYLOAD,2024-02-28 14:41:22,15.0882728,0.0001214,53.2164,206.4582,91.0899,269.0232,0.00011228,1.499e-05,0.0,0 STARLINK-4521,1 53391U 22097D   24059.61206974  .00001499  00000-0  11228-3 0  9996,2 53391  53.2164 206.4582 0001214  91.0899 269.0232 15.08827280 86947,6917.919,95.438,540.624,538.944,0.0
53391.0,STARLINK-4521,PAYLOAD,2024-02-28 16:16:45,15.08829803,0.0001423,53.2167,206.1608,96.3493,263.7662,0.00011627,1.562e-05,0.0,0 STARLINK-4521,1 53391U 22097D   24059.67830879  .00001562  00000-0  11627-3 0  9993,2 53391  53.2167 206.1608 0001423  96.3493 263.7662 15.08829803 86958,6917.912,95.438,540.761,538.792,0.0
53391.0,STARLINK-4521,PAYLOAD,2024-02-29 12:56:46,15.08839194,0.0001445,53.2169,202.2943,96.7368,263.3789,9.3538e-05,1.201e-05,0.0,0 STARLINK-4521,1 53391U 22097D   24060.53942715  .00001201  00000-0  93538-4 0  9995,2 53391  53.2169 202.2943 0001445  96.7368 263.3789 15.08839194 86431,6917.883,95.438,540.747,538.748,0.0
53391.0,STARLINK-4521,PAYLOAD,2024-02-29 14:32:09,15.08839412,0.000144,53.2172,201.997,96.9802,263.1354,9.2073e-05,1.178e-05,0.0,0 STARLINK-4521,1 53391U 22097D   24060.60566717  .00001178  00000-0  92073-4 0  9993,2 53391  53.2172 201.9970 0001440  96.9802 263.1354 15.08839412 87093,6917.882,95.438,540.743,538.751,0.0
53391.0,STARLINK-4521,PAYLOAD,2024-02-29 16:07:32,15.0883959,0.0001391,53.217,201.7015,86.7768,273.3384,9.3054e-05,1.193e-05,0.0,0 STARLINK-4521,1 53391U 22097D   24060.67190766  .00001193  00000-0  93054-4 0  9994,2 53391  53.2170 201.7015 0001391  86.7768 273.3384 15.08839590 87107,6917.882,95.438,540.709,538.784,0.0
53391.0,STARLINK-4521,PAYLOAD,2024-03-01 14:22:57,15.08832026,0.0001392,53.2181,197.5398,86.4677,273.6474,2.3717e-05,8.9e-07,0.0,0 STARLINK-4521,1 53391U 22097D   24061.59927694  .00000089  00000-0  23717-4 0  9996,2 53391  53.2181 197.5398 0001392  86.4677 273.6474 15.08832026 87247,6917.905,95.438,540.733,538.807,0.0
53391.0,STARLINK-4521,PAYLOAD,2024-03-01 15:58:20,15.08834781,0.000132,53.2175,197.2407,83.0832,277.031,-8.4498e-06,-4.22e-06,0.0,0 STARLINK-4521,1 53391U 22097D   24061.66551627 -.00000422  00000-0 -84498-5 0  9990,2 53391  53.2175 197.2407 0001320  83.0832 277.0310 15.08834781 87253,6917.896,95.438,540.675,538.848,0.0
53391.0,STARLINK-4521,PAYLOAD,2024-03-02 14:13:44,15.08836757,0.0001309,53.2178,193.078,89.0326,271.0816,-4.9965e-07,-2.96e-06,0.0,0 STARLINK-4521,1 53391U 22097D   24062.59287699 -.00000296  00000-0 -49965-6 0  9998,2 53391  53.2178 193.0780 0001309  89.0326 271.0816 15.08836757 87390,6917.89,95.438,540.661,538.85,0.0
53391.0,STARLINK-4521,PAYLOAD,2024-03-03 01:21:25,15.08845107,0.0001312,53.2181,190.997,88.7423,271.372,5.4307e-05,5.77e-06,0.0,0 STARLINK-4521,1 53391U 22097D   24063.05654971  .00000577  00000-0  54307-4 0  9995,2 53391  53.2181 190.9970 0001312  88.7423 271.3720 15.08845107 86811,6917.865,95.437,540.637,538.822,0.0
53391.0,STARLINK-4521,PAYLOAD,2024-03-03 14:04:31,15.08834048,0.0001572,53.2192,188.6203,95.7699,264.3472,7.5319e-05,9.11e-06,0.0,0 STARLINK-4521,1 53391U 22097D   24063.58647789  .00000911  00000-0  75319-4 0  9990,2 53391  53.2192 188.6203 0001572  95.7699 264.3472 15.08834048 87546,6917.899,95.438,540.851,538.676,0.0
53391.0,STARLINK-4521,PAYLOAD,2024-03-03 17:15:17,15.08838466,0.0001564,53.2187,188.0244,95.9391,264.178,0.00011239,1.501e-05,0.0,0 STARLINK-4521,1 53391U 22097D   24063.71895374  .00001501  00000-0  11239-3 0  9996,2 53391  53.2187 188.0244 0001564  95.9391 264.1780 15.08838466 87561,6917.885,95.438,540.832,538.668,0.0
53391.0,STARLINK-4521,PAYLOAD,2024-03-04 12:19:54,15.0885488,0.0001505,53.2189,184.4543,97.9127,262.2036,0.00015179,2.13e-05,0.0,0 STARLINK-4521,1 53391U 22097D   24064.51381947  .00002130  00000-0  15179-3 0  9997,2 53391  53.2189 184.4543 0001505  97.9127 262.2036 15.08854880 87032,6917.835,95.437,540.741,538.659,0.0
53391.0,STARLINK-4521,PAYLOAD,2024-03-04 13:55:17,15.08855875,0.0001507,53.2187,184.1563,94.3537,265.7628,0.0001623,2.297e-05,0.0,0 STARLINK-4521,1 53391U 22097D   24064.58005811  .00002297  00000-0  16230-3 0  9990,2 53391  53.2187 184.1563 0001507  94.3537 265.7628 15.08855875 87699,6917.832,95.437,540.739,538.654,0.0
53391.0,STARLINK-4521,PAYLOAD,2024-03-04 15:30:39,15.08858486,0.0001355,53.2179,183.8548,84.2956,275.8191,0.00016709,2.374e-05,0.0,0 STARLINK-4521,1 53391U 22097D   24064.64629588  .00002374  00000-0  16709-3 0  9997,2 53391  53.2179 183.8548 0001355  84.2956 275.8191 15.08858486 87703,6917.824,95.436,540.626,538.752,0.0
53391.0,STARLINK-4521,PAYLOAD,2024-03-05 13:46:06,15.08819889,0.0001364,53.2173,179.6985,104.5872,255.5272,-0.00021493,-3.705e-05,0.0,0 STARLINK-4521,1 53391U 22097D   24065.57368930 -.00003705  00000-0 -21493-3 0  9998,2 53391  53.2173 179.6985 0001364 104.5872 255.5272 15.08819889 87842,6917.942,95.439,540.75,538.863,0.0
